[
    {
        "address": "Route du Médoc",
        "street_number": 469,
        "zipcode": 33520,
        "city": "Bruges",
        "lat": 44.879501626717506,
        "lon": -0.6252972883747032    
        },
        {
        "address": "Route Philibert",
        "street_number": 32,
        "zipcode": 33121,
        "city": "Carcans",
        "lat": 45.06926602588722,
        "lon": -1.0418378938880173
        },
        {
        "address": "Route de Paulliac",
        "street_number": 23,
        "zipcode": 33460,
        "city": "Lamarque",
        "lat": 45.09628025048654,
        "lon": -0.7145066398140052  
        },
        {
        "address": "Rue Camille Maumey",
        "street_number": 21,
        "zipcode": 33112,
        "city": "Saint-Laurent-Médoc",
        "lat": 45.1494365449882,
        "lon": -0.8219890423458418
        },
        {
        "address": "route de saint vivien",
        "street_number": 44,
        "zipcode": 33590,
        "city": "Vensac",
        "lat": 45.41039900027439,
        "lon": -1.0353373662736858    
        },
        {
        "address": "Bd Georges Clémenceau",
        "street_number": 55,
        "zipcode": 17200,
        "city": "Royan",
        "lat": 45.62951399563223,
        "lon": -1.024126599659039    
        },
        {
        "address": "Route de Saint-Palais",
        "street_number": 12,
        "zipcode": 17200,
        "city": "Saint-Sulpice-de-Royan",
        "lat": 45.67280683477516,
        "lon": -1.0113195306848346    
        },
        {
        "address": "Les Fermenteaux",
        "street_number": 168,
        "zipcode": 33820,
        "city": "Val-de-Liverne",
        "lat": 45.29126371534666,
        "lon": -0.5695298326286    
        },
        {
        "address": "Rue Ovide Beillard",
        "street_number": 2,
        "zipcode": 17320,
        "city": "Marennes-Hiers-Brouage",
        "lat": 45.82302303618504,
        "lon": -1.1018181865051426    
        },
        {
        "address": "Route de la Rochelle",
        "street_number": null,
        "zipcode": 17300,
        "city": "Vergeroux",
        "lat": 45.96666158563619,
        "lon": -0.9825129653163439
        }
]


